start=new Date('2023-01-07T00:00:00.000Z').valueOf();
sats=[{"OBJECT_ID":"2021-038BK","DECAY_DATE":null,"SITE":"AFETR","OBJECT_TYPE":"PAYLOAD","MEAN_MOTION":"15.06385574","COUNTRY_CODE":"US","REV_AT_EPOCH":"9340","FILE":"3734255","INCLINATION":"53.0541","PERIAPSIS":"545.874","REF_FRAME":"TEME","RA_OF_ASC_NODE":"95.2189","PERIOD":"95.593","LAUNCH_DATE":"2021-05-04","NORAD_CAT_ID":"48410","APOAPSIS":"548.641","TIME_SYSTEM":"UTC","MEAN_ELEMENT_THEORY":"SGP4","ARG_OF_PERICENTER":"39.9164","TLE_LINE2":"2 48410  53.0541  95.2189 0001998  39.9164 320.1972 15.06385574 93404","EPHEMERIS_TYPE":"0","RCS_SIZE":"LARGE","MEAN_MOTION_DOT":"-0.00006474","TLE_LINE1":"1 48410U 21038BK  23006.66114172 -.00006474  00000-0 -41625-3 0  9994","MEAN_MOTION_DDOT":"0.0000000000000","SEMIMAJOR_AXIS":"6925.393","OBJECT_NAME":"STARLINK-2563","CENTER_NAME":"EARTH","BSTAR":"-0.00041625000000","ECCENTRICITY":"0.00019980","CLASSIFICATION_TYPE":"U","ELEMENT_SET_NO":"999","EPOCH":"2023-01-06T15:52:02.644608","MEAN_ANOMALY":"320.1972","GP_ID":"222342369"},{"CLASSIFICATION_TYPE":"U","ELEMENT_SET_NO":"999","ECCENTRICITY":"0.00030760","EPOCH":"2023-01-06T08:18:53.516736","GP_ID":"222342621","MEAN_ANOMALY":"319.5567","OBJECT_NAME":"STARLINK-2505","SEMIMAJOR_AXIS":"6925.321","CENTER_NAME":"EARTH","BSTAR":"0.00001243400000","ARG_OF_PERICENTER":"40.5651","MEAN_ELEMENT_THEORY":"SGP4","RCS_SIZE":"LARGE","TLE_LINE2":"2 48411  53.0531  91.6302 0003076  40.5651 319.5567 15.06408862 93429","EPHEMERIS_TYPE":"0","MEAN_MOTION_DOT":"-0.00000097","TLE_LINE1":"1 48411U 21038BL  23006.34645274 -.00000097  00000-0  12434-4 0  9993","MEAN_MOTION_DDOT":"0.0000000000000","DECAY_DATE":null,"OBJECT_TYPE":"PAYLOAD","SITE":"AFETR","MEAN_MOTION":"15.06408862","OBJECT_ID":"2021-038BL","FILE":"3734255","INCLINATION":"53.0531","COUNTRY_CODE":"US","REV_AT_EPOCH":"9342","RA_OF_ASC_NODE":"91.6302","LAUNCH_DATE":"2021-05-04","PERIOD":"95.592","PERIAPSIS":"545.056","REF_FRAME":"TEME","TIME_SYSTEM":"UTC","NORAD_CAT_ID":"48411","APOAPSIS":"549.317"},{"APOAPSIS":"548.489","NORAD_CAT_ID":"48412","TIME_SYSTEM":"UTC","REF_FRAME":"TEME","PERIAPSIS":"546.122","PERIOD":"95.594","LAUNCH_DATE":"2021-05-04","RA_OF_ASC_NODE":"90.7996","REV_AT_EPOCH":"9346","COUNTRY_CODE":"US","INCLINATION":"53.0556","FILE":"3734255","OBJECT_ID":"2021-038BM","OBJECT_TYPE":"PAYLOAD","SITE":"AFETR","MEAN_MOTION":"15.06369921","DECAY_DATE":null,"TLE_LINE1":"1 48412U 21038BM  23006.63032408 -.00008640  00000-0 -56229-3 0  9997","MEAN_MOTION_DDOT":"0.0000000000000","MEAN_MOTION_DOT":"-0.00008640","EPHEMERIS_TYPE":"0","TLE_LINE2":"2 48412  53.0556  90.7996 0001709  55.5711 304.5439 15.06369921 93468","RCS_SIZE":"LARGE","MEAN_ELEMENT_THEORY":"SGP4","ARG_OF_PERICENTER":"55.5711","BSTAR":"-0.00056229000000","CENTER_NAME":"EARTH","SEMIMAJOR_AXIS":"6925.441","OBJECT_NAME":"STARLINK-2581","MEAN_ANOMALY":"304.5439","GP_ID":"222343371","EPOCH":"2023-01-06T15:07:40.000512","ECCENTRICITY":"0.00017090","ELEMENT_SET_NO":"999","CLASSIFICATION_TYPE":"U"},{"SEMIMAJOR_AXIS":"6925.350","OBJECT_NAME":"STARLINK-2461","CENTER_NAME":"EARTH","BSTAR":"-0.00000823020000","ECCENTRICITY":"0.00019970","CLASSIFICATION_TYPE":"U","ELEMENT_SET_NO":"999","EPOCH":"2023-01-06T08:56:42.094752","MEAN_ANOMALY":"317.6849","GP_ID":"222342873","OBJECT_ID":"2021-040A","DECAY_DATE":null,"OBJECT_TYPE":"PAYLOAD","SITE":"AFETR","MEAN_MOTION":"15.06399393","COUNTRY_CODE":"US","REV_AT_EPOCH":"9197","FILE":"3734255","INCLINATION":"53.0538","PERIAPSIS":"545.832","REF_FRAME":"TEME","RA_OF_ASC_NODE":"346.5096","LAUNCH_DATE":"2021-05-09","PERIOD":"95.592","NORAD_CAT_ID":"48428","APOAPSIS":"548.598","TIME_SYSTEM":"UTC","MEAN_ELEMENT_THEORY":"SGP4","ARG_OF_PERICENTER":"42.4294","TLE_LINE2":"2 48428  53.0538 346.5096 0001997  42.4294 317.6849 15.06399393 91978","EPHEMERIS_TYPE":"0","RCS_SIZE":"LARGE","MEAN_MOTION_DOT":"-0.00000404","MEAN_MOTION_DDOT":"0.0000000000000","TLE_LINE1":"1 48428U 21040A   23006.37270943 -.00000404  00000-0 -82302-5 0  9999"},{"EPOCH":"2023-01-06T12:59:33.782208","ELEMENT_SET_NO":"999","CLASSIFICATION_TYPE":"U","ECCENTRICITY":"0.00016620","GP_ID":"222342121","MEAN_ANOMALY":"264.9964","CENTER_NAME":"EARTH","OBJECT_NAME":"STARLINK-2749","SEMIMAJOR_AXIS":"6925.459","BSTAR":"0.00176410000000","RCS_SIZE":"LARGE","EPHEMERIS_TYPE":"0","TLE_LINE2":"2 48429  53.0553 315.7599 0001662  95.1215 264.9964 15.06363916 92413","ARG_OF_PERICENTER":"95.1215","MEAN_ELEMENT_THEORY":"SGP4","MEAN_MOTION_DDOT":"0.0000000000000","TLE_LINE1":"1 48429U 21040B   23006.54136322  .00026067  00000-0  17641-2 0  9993","MEAN_MOTION_DOT":"0.00026067","INCLINATION":"53.0553","FILE":"3734255","COUNTRY_CODE":"US","REV_AT_EPOCH":"9241","OBJECT_TYPE":"PAYLOAD","SITE":"AFETR","MEAN_MOTION":"15.06363916","DECAY_DATE":null,"OBJECT_ID":"2021-040B","TIME_SYSTEM":"UTC","APOAPSIS":"548.475","NORAD_CAT_ID":"48429","LAUNCH_DATE":"2021-05-09","PERIOD":"95.594","RA_OF_ASC_NODE":"315.7599","REF_FRAME":"TEME","PERIAPSIS":"546.173"},{"REF_FRAME":"TEME","PERIAPSIS":"545.640","LAUNCH_DATE":"2021-05-09","PERIOD":"95.593","RA_OF_ASC_NODE":"314.4158","APOAPSIS":"548.849","NORAD_CAT_ID":"48430","TIME_SYSTEM":"UTC","OBJECT_ID":"2021-040C","SITE":"AFETR","OBJECT_TYPE":"PAYLOAD","MEAN_MOTION":"15.06389991","DECAY_DATE":null,"REV_AT_EPOCH":"9246","COUNTRY_CODE":"US","INCLINATION":"53.0534","FILE":"3734255","MEAN_MOTION_DDOT":"0.0000000000000","TLE_LINE1":"1 48430U 21040C   23006.83895947 -.00001950  00000-0 -11203-3 0  9997","MEAN_MOTION_DOT":"-0.00001950","MEAN_ELEMENT_THEORY":"SGP4","ARG_OF_PERICENTER":"39.7671","EPHEMERIS_TYPE":"0","TLE_LINE2":"2 48430  53.0534 314.4158 0002317  39.7671 320.3487 15.06389991 92462","RCS_SIZE":"LARGE","BSTAR":"-0.00011203000000","SEMIMAJOR_AXIS":"6925.379","OBJECT_NAME":"STARLINK-2729","CENTER_NAME":"EARTH","MEAN_ANOMALY":"320.3487","GP_ID":"222342371","ECCENTRICITY":"0.00023170","ELEMENT_SET_NO":"999","CLASSIFICATION_TYPE":"U","EPOCH":"2023-01-06T20:08:06.098208"},{"RA_OF_ASC_NODE":"312.0429","LAUNCH_DATE":"2021-05-09","PERIOD":"95.593","PERIAPSIS":"546.112","REF_FRAME":"TEME","TIME_SYSTEM":"UTC","NORAD_CAT_ID":"48431","APOAPSIS":"548.367","DECAY_DATE":null,"SITE":"AFETR","OBJECT_TYPE":"PAYLOAD","MEAN_MOTION":"15.06391433","OBJECT_ID":"2021-040D","FILE":"3734255","INCLINATION":"53.0569","REV_AT_EPOCH":"9244","COUNTRY_CODE":"US","MEAN_MOTION_DOT":"-0.00002298","TLE_LINE1":"1 48431U 21040D   23006.25520972 -.00002298  00000-0 -13548-3 0  9997","MEAN_MOTION_DDOT":"0.0000000000000","ARG_OF_PERICENTER":"48.2548","MEAN_ELEMENT_THEORY":"SGP4","RCS_SIZE":"LARGE","TLE_LINE2":"2 48431  53.0569 312.0429 0001628  48.2548 311.8580 15.06391433 92449","EPHEMERIS_TYPE":"0","BSTAR":"-0.00013548000000","OBJECT_NAME":"STARLINK-2700","SEMIMAJOR_AXIS":"6925.375","CENTER_NAME":"EARTH","GP_ID":"222342623","MEAN_ANOMALY":"311.8580","CLASSIFICATION_TYPE":"U","ELEMENT_SET_NO":"999","ECCENTRICITY":"0.00016280","EPOCH":"2023-01-06T06:07:30.119808"},{"CLASSIFICATION_TYPE":"U","ELEMENT_SET_NO":"999","ECCENTRICITY":"0.00017650","EPOCH":"2023-01-05T13:44:58.601472","GP_ID":"222237822","MEAN_ANOMALY":"301.3807","OBJECT_NAME":"STARLINK-2680","SEMIMAJOR_AXIS":"6925.278","CENTER_NAME":"EARTH","BSTAR":"0.00019503000000","ARG_OF_PERICENTER":"58.7354","MEAN_ELEMENT_THEORY":"SGP4","RCS_SIZE":"LARGE","TLE_LINE2":"2 48432  53.0565 310.5014 0001765  58.7354 301.3807 15.06423009 93017","EPHEMERIS_TYPE":"0","MEAN_MOTION_DOT":"0.00002626","TLE_LINE1":"1 48432U 21040E   23005.57290048  .00002626  00000-0  19503-3 0  9990","MEAN_MOTION_DDOT":"0.0000000000000","DECAY_DATE":null,"MEAN_MOTION":"15.06423009","SITE":"AFETR","OBJECT_TYPE":"PAYLOAD","OBJECT_ID":"2021-040E","FILE":"3732870","INCLINATION":"53.0565","REV_AT_EPOCH":"9301","COUNTRY_CODE":"US","RA_OF_ASC_NODE":"310.5014","PERIOD":"95.591","LAUNCH_DATE":"2021-05-09","PERIAPSIS":"545.921","REF_FRAME":"TEME","TIME_SYSTEM":"UTC","NORAD_CAT_ID":"48432","APOAPSIS":"548.365"},{"EPOCH":"2023-01-06T20:18:08.884224","ELEMENT_SET_NO":"999","CLASSIFICATION_TYPE":"U","ECCENTRICITY":"0.00018950","GP_ID":"222341622","MEAN_ANOMALY":"309.4939","CENTER_NAME":"EARTH","OBJECT_NAME":"STARLINK-2699","SEMIMAJOR_AXIS":"6925.414","BSTAR":"0.00037809000000","RCS_SIZE":"LARGE","EPHEMERIS_TYPE":"0","TLE_LINE2":"2 48433  53.0534 309.6726 0001895  50.6218 309.4939 15.06378661 92520","ARG_OF_PERICENTER":"50.6218","MEAN_ELEMENT_THEORY":"SGP4","MEAN_MOTION_DDOT":"0.0000000000000","TLE_LINE1":"1 48433U 21040F   23006.84593616  .00005351  00000-0  37809-3 0  9996","MEAN_MOTION_DOT":"0.00005351","INCLINATION":"53.0534","FILE":"3734255","COUNTRY_CODE":"US","REV_AT_EPOCH":"9252","SITE":"AFETR","OBJECT_TYPE":"PAYLOAD","MEAN_MOTION":"15.06378661","DECAY_DATE":null,"OBJECT_ID":"2021-040F","TIME_SYSTEM":"UTC","APOAPSIS":"548.591","NORAD_CAT_ID":"48433","LAUNCH_DATE":"2021-05-09","PERIOD":"95.593","RA_OF_ASC_NODE":"309.6726","REF_FRAME":"TEME","PERIAPSIS":"545.967"},{"CENTER_NAME":"EARTH","OBJECT_NAME":"STARLINK-2692","SEMIMAJOR_AXIS":"6925.359","BSTAR":"-0.00006416600000","EPOCH":"2023-01-06T21:02:37.636800","ELEMENT_SET_NO":"999","CLASSIFICATION_TYPE":"U","ECCENTRICITY":"0.00015950","GP_ID":"222341872","MEAN_ANOMALY":"281.0769","INCLINATION":"53.0541","FILE":"3734255","COUNTRY_CODE":"US","REV_AT_EPOCH":"9246","SITE":"AFETR","MEAN_MOTION":"15.06396575","OBJECT_TYPE":"PAYLOAD","DECAY_DATE":null,"OBJECT_ID":"2021-040G","TIME_SYSTEM":"UTC","APOAPSIS":"548.329","NORAD_CAT_ID":"48434","LAUNCH_DATE":"2021-05-09","PERIOD":"95.592","RA_OF_ASC_NODE":"314.7671","REF_FRAME":"TEME","PERIAPSIS":"546.119","RCS_SIZE":"LARGE","EPHEMERIS_TYPE":"0","TLE_LINE2":"2 48434  53.0541 314.7671 0001595  79.0399 281.0769 15.06396575 92460","ARG_OF_PERICENTER":"79.0399","MEAN_ELEMENT_THEORY":"SGP4","MEAN_MOTION_DDOT":"0.0000000000000","TLE_LINE1":"1 48434U 21040G   23006.87682450 -.00001237  00000-0 -64166-4 0  9993","MEAN_MOTION_DOT":"-0.00001237"}];
